start=new Date('2022-10-20T00:00:00.000Z').valueOf();
sats=[{"PERIOD":"95.593","PERIAPSIS":"546.139","TLE_LINE2":"2 45580  53.0556 241.8136 0001617  83.7762 276.3411 15.06385321138854","MEAN_MOTION_DDOT":"0.0000000000000","MEAN_MOTION_DOT":"-0.00000458","OBJECT_ID":"2020-025BB","APOAPSIS":"548.378","MEAN_ANOMALY":"276.3411","OBJECT_NAME":"STARLINK-1333","MEAN_MOTION":"15.06385321","TIME_SYSTEM":"UTC","FILE":"3623062","REF_FRAME":"TEME","OBJECT_TYPE":"PAYLOAD","CENTER_NAME":"EARTH","ELEMENT_SET_NO":"999","LAUNCH_DATE":"2020-04-22","BSTAR":"-0.00001183300000","GP_ID":"215577097","COUNTRY_CODE":"US","ARG_OF_PERICENTER":"83.7762","CLASSIFICATION_TYPE":"U","NORAD_CAT_ID":"45580","TLE_LINE1":"1 45580U 20025BB  22292.22270949 -.00000458  00000-0 -11833-4 0  9992","MEAN_ELEMENT_THEORY":"SGP4","RA_OF_ASC_NODE":"241.8136","RCS_SIZE":"LARGE","SITE":"AFETR","EPHEMERIS_TYPE":"0","ECCENTRICITY":"0.00016170","EPOCH":"2022-10-19T05:20:42.099936","DECAY_DATE":null,"SEMIMAJOR_AXIS":"6925.394","REV_AT_EPOCH":"13885","INCLINATION":"53.0556"},{"MEAN_MOTION":"15.06398729","TIME_SYSTEM":"UTC","OBJECT_TYPE":"PAYLOAD","REF_FRAME":"TEME","FILE":"3623738","CENTER_NAME":"EARTH","ELEMENT_SET_NO":"999","LAUNCH_DATE":"2020-04-22","PERIOD":"95.592","PERIAPSIS":"546.257","TLE_LINE2":"2 45581  53.0555 230.3116 0001387  75.2098 284.9044 15.06398729139042","MEAN_MOTION_DDOT":"0.0000000000000","MEAN_MOTION_DOT":"0.00001233","APOAPSIS":"548.178","OBJECT_ID":"2020-025BC","OBJECT_NAME":"STARLINK-1335","MEAN_ANOMALY":"284.9044","EPOCH":"2022-10-19T13:25:01.442208","ECCENTRICITY":"0.00013870","EPHEMERIS_TYPE":"0","REV_AT_EPOCH":"13904","SEMIMAJOR_AXIS":"6925.352","DECAY_DATE":null,"INCLINATION":"53.0555","GP_ID":"215617883","BSTAR":"0.00010165000000","NORAD_CAT_ID":"45581","CLASSIFICATION_TYPE":"U","ARG_OF_PERICENTER":"75.2098","COUNTRY_CODE":"US","TLE_LINE1":"1 45581U 20025BC  22292.55904447  .00001233  00000-0  10165-3 0  9992","RA_OF_ASC_NODE":"230.3116","MEAN_ELEMENT_THEORY":"SGP4","SITE":"AFETR","RCS_SIZE":"LARGE"},{"SITE":"AFETR","RCS_SIZE":"LARGE","RA_OF_ASC_NODE":"231.4160","MEAN_ELEMENT_THEORY":"SGP4","TLE_LINE1":"1 45582U 20025BD  22292.31577926  .00000817  00000-0  73797-4 0  9993","CLASSIFICATION_TYPE":"U","NORAD_CAT_ID":"45582","COUNTRY_CODE":"US","ARG_OF_PERICENTER":"45.9794","BSTAR":"0.00007379700000","GP_ID":"215578596","INCLINATION":"53.0544","REV_AT_EPOCH":"13900","DECAY_DATE":null,"SEMIMAJOR_AXIS":"6925.378","EPOCH":"2022-10-19T07:34:43.328064","ECCENTRICITY":"0.00018000","EPHEMERIS_TYPE":"0","OBJECT_NAME":"STARLINK-1337","MEAN_ANOMALY":"314.1343","APOAPSIS":"548.489","OBJECT_ID":"2020-025BD","MEAN_MOTION_DOT":"0.00000817","MEAN_MOTION_DDOT":"0.0000000000000","TLE_LINE2":"2 45582  53.0544 231.4160 0001800  45.9794 314.1343 15.06390518139001","PERIOD":"95.593","PERIAPSIS":"545.996","LAUNCH_DATE":"2020-04-22","ELEMENT_SET_NO":"999","CENTER_NAME":"EARTH","REF_FRAME":"TEME","OBJECT_TYPE":"PAYLOAD","FILE":"3623062","TIME_SYSTEM":"UTC","MEAN_MOTION":"15.06390518"},{"SITE":"AFETR","RCS_SIZE":"LARGE","MEAN_ELEMENT_THEORY":"SGP4","RA_OF_ASC_NODE":"231.7897","TLE_LINE1":"1 45583U 20025BE  22292.23099364 -.00000543  00000-0 -17536-4 0  9997","CLASSIFICATION_TYPE":"U","NORAD_CAT_ID":"45583","ARG_OF_PERICENTER":"67.2648","COUNTRY_CODE":"US","BSTAR":"-0.00001753600000","GP_ID":"215584790","INCLINATION":"53.0563","REV_AT_EPOCH":"13839","SEMIMAJOR_AXIS":"6925.311","DECAY_DATE":null,"EPOCH":"2022-10-19T05:32:37.850496","EPHEMERIS_TYPE":"0","ECCENTRICITY":"0.00015500","OBJECT_NAME":"STARLINK-1340","MEAN_ANOMALY":"292.8505","OBJECT_ID":"2020-025BE","APOAPSIS":"548.250","MEAN_MOTION_DOT":"-0.00000543","MEAN_MOTION_DDOT":"0.0000000000000","TLE_LINE2":"2 45583  53.0563 231.7897 0001550  67.2648 292.8505 15.06412117138393","PERIOD":"95.591","PERIAPSIS":"546.103","LAUNCH_DATE":"2020-04-22","ELEMENT_SET_NO":"999","CENTER_NAME":"EARTH","REF_FRAME":"TEME","OBJECT_TYPE":"PAYLOAD","FILE":"3623110","TIME_SYSTEM":"UTC","MEAN_MOTION":"15.06412117"},{"EPOCH":"2022-10-19T13:13:02.780832","ECCENTRICITY":"0.00016480","EPHEMERIS_TYPE":"0","INCLINATION":"53.0553","REV_AT_EPOCH":"13844","SEMIMAJOR_AXIS":"6925.289","DECAY_DATE":null,"NORAD_CAT_ID":"45584","CLASSIFICATION_TYPE":"U","ARG_OF_PERICENTER":"72.7823","COUNTRY_CODE":"US","GP_ID":"215584639","BSTAR":"-0.00017668000000","SITE":"AFETR","RCS_SIZE":"LARGE","RA_OF_ASC_NODE":"230.3518","MEAN_ELEMENT_THEORY":"SGP4","TLE_LINE1":"1 45584U 20025BF  22292.55072663 -.00002914  00000-0 -17668-3 0  9995","TIME_SYSTEM":"UTC","MEAN_MOTION":"15.06419358","LAUNCH_DATE":"2020-04-22","ELEMENT_SET_NO":"999","CENTER_NAME":"EARTH","OBJECT_TYPE":"PAYLOAD","REF_FRAME":"TEME","FILE":"3623110","MEAN_MOTION_DDOT":"0.0000000000000","TLE_LINE2":"2 45584  53.0553 230.3518 0001648  72.7823 287.3347 15.06419358138445","PERIAPSIS":"546.013","PERIOD":"95.591","OBJECT_NAME":"STARLINK-1343","MEAN_ANOMALY":"287.3347","OBJECT_ID":"2020-025BF","APOAPSIS":"548.296","MEAN_MOTION_DOT":"-0.00002914"},{"PERIOD":"95.592","PERIAPSIS":"546.104","TLE_LINE2":"2 45586  53.0549 229.0667 0001611  84.2875 275.8298 15.06398048139076","MEAN_MOTION_DDOT":"0.0000000000000","MEAN_MOTION_DOT":"0.00000140","OBJECT_ID":"2020-025BH","APOAPSIS":"548.335","OBJECT_NAME":"STARLINK-1347","MEAN_ANOMALY":"275.8298","MEAN_MOTION":"15.06398048","TIME_SYSTEM":"UTC","OBJECT_TYPE":"PAYLOAD","REF_FRAME":"TEME","FILE":"3623738","CENTER_NAME":"EARTH","ELEMENT_SET_NO":"999","LAUNCH_DATE":"2020-04-22","BSTAR":"0.00002833400000","GP_ID":"215618382","CLASSIFICATION_TYPE":"U","NORAD_CAT_ID":"45586","ARG_OF_PERICENTER":"84.2875","COUNTRY_CODE":"US","TLE_LINE1":"1 45586U 20025BH  22292.83918009  .00000140  00000-0  28334-4 0  9991","RA_OF_ASC_NODE":"229.0667","MEAN_ELEMENT_THEORY":"SGP4","SITE":"AFETR","RCS_SIZE":"LARGE","EPOCH":"2022-10-19T20:08:25.159776","EPHEMERIS_TYPE":"0","ECCENTRICITY":"0.00016110","REV_AT_EPOCH":"13907","DECAY_DATE":null,"SEMIMAJOR_AXIS":"6925.355","INCLINATION":"53.0549"},{"BSTAR":"0.00012752000000","GP_ID":"215578097","ARG_OF_PERICENTER":"77.9189","COUNTRY_CODE":"US","NORAD_CAT_ID":"45587","CLASSIFICATION_TYPE":"U","TLE_LINE1":"1 45587U 20025BJ  22292.21257092  .00001618  00000-0  12752-3 0  9999","MEAN_ELEMENT_THEORY":"SGP4","RA_OF_ASC_NODE":"231.8761","RCS_SIZE":"LARGE","SITE":"AFETR","EPHEMERIS_TYPE":"0","ECCENTRICITY":"0.00014310","EPOCH":"2022-10-19T05:06:06.127488","DECAY_DATE":null,"SEMIMAJOR_AXIS":"6925.366","REV_AT_EPOCH":"13899","INCLINATION":"53.0544","PERIAPSIS":"546.240","PERIOD":"95.593","TLE_LINE2":"2 45587  53.0544 231.8761 0001431  77.9189 282.1960 15.06394309138998","MEAN_MOTION_DDOT":"0.0000000000000","MEAN_MOTION_DOT":"0.00001618","OBJECT_ID":"2020-025BJ","APOAPSIS":"548.222","MEAN_ANOMALY":"282.1960","OBJECT_NAME":"STARLINK-1349","MEAN_MOTION":"15.06394309","TIME_SYSTEM":"UTC","FILE":"3623062","REF_FRAME":"TEME","OBJECT_TYPE":"PAYLOAD","CENTER_NAME":"EARTH","ELEMENT_SET_NO":"999","LAUNCH_DATE":"2020-04-22"},{"SITE":"AFETR","RCS_SIZE":"LARGE","TLE_LINE1":"1 45588U 20025BK  22292.52219643  .00000664  00000-0  63495-4 0  9995","RA_OF_ASC_NODE":"230.4798","MEAN_ELEMENT_THEORY":"SGP4","NORAD_CAT_ID":"45588","CLASSIFICATION_TYPE":"U","COUNTRY_CODE":"US","ARG_OF_PERICENTER":"88.7481","GP_ID":"215578348","BSTAR":"0.00006349500000","REV_AT_EPOCH":"13903","DECAY_DATE":null,"SEMIMAJOR_AXIS":"6925.379","INCLINATION":"53.0538","EPOCH":"2022-10-19T12:31:57.771552","EPHEMERIS_TYPE":"0","ECCENTRICITY":"0.00015090","APOAPSIS":"548.289","OBJECT_ID":"2020-025BK","OBJECT_NAME":"STARLINK-1360","MEAN_ANOMALY":"271.3681","MEAN_MOTION_DOT":"0.00000664","MEAN_MOTION_DDOT":"0.0000000000000","PERIAPSIS":"546.199","PERIOD":"95.593","TLE_LINE2":"2 45588  53.0538 230.4798 0001509  88.7481 271.3681 15.06389983139036","ELEMENT_SET_NO":"999","LAUNCH_DATE":"2020-04-22","REF_FRAME":"TEME","OBJECT_TYPE":"PAYLOAD","FILE":"3623062","CENTER_NAME":"EARTH","MEAN_MOTION":"15.06389983","TIME_SYSTEM":"UTC"},{"PERIOD":"95.592","PERIAPSIS":"546.215","TLE_LINE2":"2 45589  53.0557 231.6947 0001450  73.3341 286.7807 15.06398031138995","MEAN_MOTION_DDOT":"0.0000000000000","MEAN_MOTION_DOT":"0.00000388","OBJECT_ID":"2020-025BL","APOAPSIS":"548.224","OBJECT_NAME":"STARLINK-1364","MEAN_ANOMALY":"286.7807","MEAN_MOTION":"15.06398031","TIME_SYSTEM":"UTC","REF_FRAME":"TEME","OBJECT_TYPE":"PAYLOAD","FILE":"3623062","CENTER_NAME":"EARTH","ELEMENT_SET_NO":"999","LAUNCH_DATE":"2020-04-22","BSTAR":"0.00004497700000","GP_ID":"215577098","CLASSIFICATION_TYPE":"U","NORAD_CAT_ID":"45589","COUNTRY_CODE":"US","ARG_OF_PERICENTER":"73.3341","TLE_LINE1":"1 45589U 20025BL  22292.25311006  .00000388  00000-0  44977-4 0  9999","MEAN_ELEMENT_THEORY":"SGP4","RA_OF_ASC_NODE":"231.6947","SITE":"AFETR","RCS_SIZE":"LARGE","EPOCH":"2022-10-19T06:04:28.709184","EPHEMERIS_TYPE":"0","ECCENTRICITY":"0.00014500","REV_AT_EPOCH":"13899","DECAY_DATE":null,"SEMIMAJOR_AXIS":"6925.355","INCLINATION":"53.0557"},{"DECAY_DATE":null,"SEMIMAJOR_AXIS":"6925.380","REV_AT_EPOCH":"13869","INCLINATION":"53.0541","ECCENTRICITY":"0.00028180","EPHEMERIS_TYPE":"0","EPOCH":"2022-10-19T22:22:26.322240","TLE_LINE1":"1 45590U 20025BM  22292.93224910 -.00003950  00000-0 -24642-3 0  9999","RA_OF_ASC_NODE":"258.6436","MEAN_ELEMENT_THEORY":"SGP4","RCS_SIZE":"LARGE","SITE":"AFETR","GP_ID":"215617884","BSTAR":"-0.00024642000000","ARG_OF_PERICENTER":"40.0504","COUNTRY_CODE":"US","CLASSIFICATION_TYPE":"U","NORAD_CAT_ID":"45590","FILE":"3623738","OBJECT_TYPE":"PAYLOAD","REF_FRAME":"TEME","CENTER_NAME":"EARTH","ELEMENT_SET_NO":"999","LAUNCH_DATE":"2020-04-22","MEAN_MOTION":"15.06389896","TIME_SYSTEM":"UTC","MEAN_MOTION_DOT":"-0.00003950","APOAPSIS":"549.196","OBJECT_ID":"2020-025BM","MEAN_ANOMALY":"320.0693","OBJECT_NAME":"STARLINK-1365","PERIOD":"95.593","PERIAPSIS":"545.293","TLE_LINE2":"2 45590  53.0541 258.6436 0002818  40.0504 320.0693 15.06389896138694","MEAN_MOTION_DDOT":"0.0000000000000"}];
